{
  "type": "FeatureCollection",
  "features": [
    {
      "type": "Feature",
      "properties": {
        "name": "Middle Fork of the Salmon River",
        "source": "RiverMaps 5th Ed. mileage markers",
        "vertex_miles": [
          0,
          0.167,
          0.333,
          0.5,
          0.667,
          0.833,
          1,
          1.167,
          1.333,
          1.5,
          1.667,
          1.833,
          2,
          2.167,
          2.333,
          2.5,
          2.667,
          2.833,
          3,
          3.167,
          3.333,
          3.5,
          3.667,
          3.833,
          4,
          4.167,
          4.333,
          4.5,
          4.667,
          4.833,
          5,
          5.167,
          5.333,
          5.5,
          5.667,
          5.833,
          6,
          6.167,
          6.333,
          6.5,
          6.667,
          6.833,
          7,
          7.167,
          7.333,
          7.5,
          7.667,
          7.833,
          8,
          8.167,
          8.333,
          8.5,
          8.667,
          8.833,
          9,
          9.167,
          9.333,
          9.5,
          9.667,
          9.833,
          10,
          10.167,
          10.333,
          10.5,
          10.667,
          10.833,
          11,
          11.167,
          11.333,
          11.5,
          11.667,
          11.833,
          12,
          12.167,
          12.333,
          12.5,
          12.667,
          12.833,
          13,
          13.167,
          13.333,
          13.5,
          13.667,
          13.833,
          14,
          14.167,
          14.333,
          14.5,
          14.667,
          14.833,
          15,
          15.167,
          15.333,
          15.5,
          15.667,
          15.833,
          16,
          16.167,
          16.333,
          16.5,
          16.667,
          16.833,
          17,
          17.167,
          17.333,
          17.5,
          17.667,
          17.833,
          18,
          18.167,
          18.333,
          18.5,
          18.667,
          18.833,
          19,
          19.167,
          19.333,
          19.5,
          19.667,
          19.833,
          20,
          20.167,
          20.333,
          20.5,
          20.667,
          20.833,
          21,
          21.167,
          21.333,
          21.5,
          21.667,
          21.833,
          22,
          22.167,
          22.333,
          22.5,
          22.667,
          22.833,
          23,
          23.167,
          23.333,
          23.5,
          23.667,
          23.833,
          24,
          24.167,
          24.333,
          24.5,
          24.667,
          24.833,
          25,
          25.167,
          25.333,
          25.5,
          25.667,
          25.833,
          26,
          26.167,
          26.333,
          26.5,
          26.667,
          26.833,
          27,
          27.167,
          27.333,
          27.5,
          27.667,
          27.833,
          28,
          28.167,
          28.333,
          28.5,
          28.667,
          28.833,
          29,
          29.167,
          29.333,
          29.5,
          29.667,
          29.833,
          30,
          30.167,
          30.333,
          30.5,
          30.667,
          30.833,
          31,
          31.167,
          31.333,
          31.5,
          31.667,
          31.833,
          32,
          32.167,
          32.333,
          32.5,
          32.667,
          32.833,
          33,
          33.167,
          33.333,
          33.5,
          33.667,
          33.833,
          34,
          34.167,
          34.333,
          34.5,
          34.667,
          34.833,
          35,
          35.167,
          35.333,
          35.5,
          35.667,
          35.833,
          36,
          36.167,
          36.333,
          36.5,
          36.667,
          36.833,
          37,
          37.167,
          37.333,
          37.5,
          37.667,
          37.833,
          38,
          38.167,
          38.333,
          38.5,
          38.667,
          38.833,
          39,
          39.167,
          39.333,
          39.5,
          39.667,
          39.833,
          40,
          40.167,
          40.333,
          40.5,
          40.667,
          40.833,
          41,
          41.167,
          41.333,
          41.5,
          41.667,
          41.833,
          42,
          42.167,
          42.333,
          42.5,
          42.667,
          42.833,
          43,
          43.167,
          43.333,
          43.5,
          43.667,
          43.833,
          44,
          44.167,
          44.333,
          44.5,
          44.667,
          44.833,
          45,
          45.167,
          45.333,
          45.5,
          45.667,
          45.833,
          46,
          46.167,
          46.333,
          46.5,
          46.667,
          46.833,
          47,
          47.167,
          47.333,
          47.5,
          47.667,
          47.833,
          48,
          48.167,
          48.333,
          48.5,
          48.667,
          48.833,
          49,
          49.167,
          49.333,
          49.5,
          49.667,
          49.833,
          50,
          50.167,
          50.333,
          50.5,
          50.667,
          50.833,
          51,
          51.167,
          51.333,
          51.5,
          51.667,
          51.833,
          52,
          52.167,
          52.333,
          52.5,
          52.667,
          52.833,
          53,
          53.167,
          53.333,
          53.5,
          53.667,
          53.833,
          54,
          54.167,
          54.333,
          54.5,
          54.667,
          54.833,
          55,
          55.167,
          55.333,
          55.5,
          55.667,
          55.833,
          56,
          56.167,
          56.333,
          56.5,
          56.667,
          56.833,
          57,
          57.167,
          57.333,
          57.5,
          57.667,
          57.833,
          58,
          58.167,
          58.333,
          58.5,
          58.667,
          58.833,
          59,
          59.167,
          59.333,
          59.5,
          59.667,
          59.833,
          60,
          60.167,
          60.333,
          60.5,
          60.667,
          60.833,
          61,
          61.167,
          61.333,
          61.5,
          61.667,
          61.833,
          62,
          62.167,
          62.333,
          62.5,
          62.667,
          62.833,
          63,
          63.167,
          63.333,
          63.5,
          63.667,
          63.833,
          64,
          64.167,
          64.333,
          64.5,
          64.667,
          64.833,
          65,
          65.167,
          65.333,
          65.5,
          65.667,
          65.833,
          66,
          66.167,
          66.333,
          66.5,
          66.667,
          66.833,
          67,
          67.167,
          67.333,
          67.5,
          67.667,
          67.833,
          68,
          68.167,
          68.333,
          68.5,
          68.667,
          68.833,
          69,
          69.167,
          69.333,
          69.5,
          69.667,
          69.833,
          70,
          70.167,
          70.333,
          70.5,
          70.667,
          70.833,
          71,
          71.167,
          71.333,
          71.5,
          71.667,
          71.833,
          72,
          72.167,
          72.333,
          72.5,
          72.667,
          72.833,
          73,
          73.167,
          73.333,
          73.5,
          73.667,
          73.833,
          74,
          74.167,
          74.333,
          74.5,
          74.667,
          74.833,
          75,
          75.167,
          75.333,
          75.5,
          75.667,
          75.833,
          76,
          76.167,
          76.333,
          76.5,
          76.667,
          76.833,
          77,
          77.167,
          77.333,
          77.5,
          77.667,
          77.833,
          78,
          78.167,
          78.333,
          78.5,
          78.667,
          78.833,
          79,
          79.167,
          79.333,
          79.5,
          79.667,
          79.833,
          80,
          80.167,
          80.333,
          80.5,
          80.667,
          80.833,
          81,
          81.167,
          81.333,
          81.5,
          81.667,
          81.833,
          82,
          82.167,
          82.333,
          82.5,
          82.667,
          82.833,
          83,
          83.167,
          83.333,
          83.5,
          83.667,
          83.833,
          84,
          84.167,
          84.333,
          84.5,
          84.667,
          84.833,
          85,
          85.167,
          85.333,
          85.5,
          85.667,
          85.833,
          86,
          86.167,
          86.333,
          86.5,
          86.667,
          86.833,
          87,
          87.167,
          87.333,
          87.5,
          87.667,
          87.833,
          88,
          88.167,
          88.333,
          88.5,
          88.667,
          88.833,
          89,
          89.167,
          89.333,
          89.5,
          89.667,
          89.833,
          90,
          90.167,
          90.333,
          90.5,
          90.667,
          90.833,
          91,
          91.167,
          91.333,
          91.5,
          91.667,
          91.833,
          92,
          92.167,
          92.333,
          92.5,
          92.667,
          92.833,
          93,
          93.167,
          93.333,
          93.5,
          93.667,
          93.833,
          94,
          94.167,
          94.333,
          94.5,
          94.667,
          94.833,
          95,
          95.167,
          95.333,
          95.5,
          95.667,
          95.833,
          96,
          96.167,
          96.333,
          96.5,
          96.667,
          96.833,
          97,
          97.167,
          97.333,
          97.5,
          97.667,
          97.833,
          98,
          98.167,
          98.333,
          98.5,
          98.667,
          98.833,
          99,
          99.167,
          99.333,
          99.5,
          99.667,
          99.833,
          100,
          100.167,
          100.333,
          100.5,
          100.667,
          100.833,
          101,
          101.167,
          101.333,
          101.5,
          101.667,
          101.833,
          102,
          102.167,
          102.333,
          102.5,
          102.667,
          102.833,
          103
        ],
        "total_miles": 103.0
      },
      "geometry": {
        "type": "LineString",
        "coordinates": [
          [
            -115.2939186,
            44.5320328
          ],
          [
            -115.2937474,
            44.5340128
          ],
          [
            -115.2935763,
            44.5359928
          ],
          [
            -115.2934051,
            44.5379728
          ],
          [
            -115.293234,
            44.5399528
          ],
          [
            -115.2930628,
            44.5419328
          ],
          [
            -115.2928917,
            44.5439128
          ],
          [
            -115.2937974,
            44.5458947
          ],
          [
            -115.2947031,
            44.5478766
          ],
          [
            -115.2956087,
            44.5498585
          ],
          [
            -115.2965144,
            44.5518404
          ],
          [
            -115.2974201,
            44.5538223
          ],
          [
            -115.2983258,
            44.5558042
          ],
          [
            -115.298665,
            44.5578757
          ],
          [
            -115.2990043,
            44.5599472
          ],
          [
            -115.2993436,
            44.5620188
          ],
          [
            -115.2996829,
            44.5640903
          ],
          [
            -115.3000221,
            44.5661618
          ],
          [
            -115.3003614,
            44.5682334
          ],
          [
            -115.3009363,
            44.5703562
          ],
          [
            -115.3015111,
            44.572479
          ],
          [
            -115.302086,
            44.5746017
          ],
          [
            -115.3026609,
            44.5767245
          ],
          [
            -115.3032357,
            44.5788473
          ],
          [
            -115.3038106,
            44.5809701
          ],
          [
            -115.3022888,
            44.5829012
          ],
          [
            -115.3007671,
            44.5848322
          ],
          [
            -115.2992454,
            44.5867633
          ],
          [
            -115.2977236,
            44.5886944
          ],
          [
            -115.2962018,
            44.5906254
          ],
          [
            -115.2946801,
            44.5925565
          ],
          [
            -115.2927635,
            44.5943162
          ],
          [
            -115.290847,
            44.5960759
          ],
          [
            -115.2889304,
            44.5978356
          ],
          [
            -115.2870139,
            44.5995953
          ],
          [
            -115.2850974,
            44.601355
          ],
          [
            -115.2831808,
            44.6031147
          ],
          [
            -115.2815748,
            44.6043715
          ],
          [
            -115.2799688,
            44.6056282
          ],
          [
            -115.2783627,
            44.606885
          ],
          [
            -115.2767567,
            44.6081418
          ],
          [
            -115.2751507,
            44.6093985
          ],
          [
            -115.2735447,
            44.6106553
          ],
          [
            -115.2711288,
            44.6104628
          ],
          [
            -115.268713,
            44.6102703
          ],
          [
            -115.2662971,
            44.6100778
          ],
          [
            -115.2638813,
            44.6098854
          ],
          [
            -115.2614655,
            44.6096929
          ],
          [
            -115.2590496,
            44.6095004
          ],
          [
            -115.2571044,
            44.6109667
          ],
          [
            -115.2551593,
            44.612433
          ],
          [
            -115.2532141,
            44.6138993
          ],
          [
            -115.2512689,
            44.6153656
          ],
          [
            -115.2493238,
            44.6168319
          ],
          [
            -115.2473786,
            44.6182982
          ],
          [
            -115.2446153,
            44.6184002
          ],
          [
            -115.2418519,
            44.6185022
          ],
          [
            -115.2390886,
            44.6186041
          ],
          [
            -115.2363252,
            44.6187061
          ],
          [
            -115.2335619,
            44.6188081
          ],
          [
            -115.2307985,
            44.6189101
          ],
          [
            -115.2300129,
            44.6201366
          ],
          [
            -115.2292274,
            44.6213631
          ],
          [
            -115.2284418,
            44.6225897
          ],
          [
            -115.2276562,
            44.6238162
          ],
          [
            -115.2268707,
            44.6250427
          ],
          [
            -115.2260851,
            44.6262692
          ],
          [
            -115.2239961,
            44.6261608
          ],
          [
            -115.221907,
            44.6260523
          ],
          [
            -115.2198179,
            44.6259438
          ],
          [
            -115.2177289,
            44.6258354
          ],
          [
            -115.2156399,
            44.625727
          ],
          [
            -115.2135508,
            44.6256185
          ],
          [
            -115.2111676,
            44.6253688
          ],
          [
            -115.2087844,
            44.6251191
          ],
          [
            -115.2064013,
            44.6248693
          ],
          [
            -115.2040181,
            44.6246196
          ],
          [
            -115.2016349,
            44.6243699
          ],
          [
            -115.1992517,
            44.6241202
          ],
          [
            -115.1977567,
            44.6260505
          ],
          [
            -115.1962617,
            44.6279809
          ],
          [
            -115.1947666,
            44.6299112
          ],
          [
            -115.1932716,
            44.6318416
          ],
          [
            -115.1917765,
            44.6337719
          ],
          [
            -115.1902815,
            44.6357023
          ],
          [
            -115.1886194,
            44.6373847
          ],
          [
            -115.1869573,
            44.6390672
          ],
          [
            -115.1852952,
            44.6407497
          ],
          [
            -115.183633,
            44.6424321
          ],
          [
            -115.1819709,
            44.6441145
          ],
          [
            -115.1803088,
            44.645797
          ],
          [
            -115.1778186,
            44.6466278
          ],
          [
            -115.1753285,
            44.6474586
          ],
          [
            -115.1728383,
            44.6482894
          ],
          [
            -115.1703481,
            44.6491202
          ],
          [
            -115.167858,
            44.6499509
          ],
          [
            -115.1653678,
            44.6507817
          ],
          [
            -115.1647847,
            44.6528951
          ],
          [
            -115.1642015,
            44.6550085
          ],
          [
            -115.1636184,
            44.6571219
          ],
          [
            -115.1630353,
            44.6592353
          ],
          [
            -115.1624521,
            44.6613487
          ],
          [
            -115.161869,
            44.6634621
          ],
          [
            -115.160488,
            44.6654381
          ],
          [
            -115.1591069,
            44.6674141
          ],
          [
            -115.1577258,
            44.6693901
          ],
          [
            -115.1563448,
            44.6713662
          ],
          [
            -115.1549638,
            44.6733422
          ],
          [
            -115.1535827,
            44.6753182
          ],
          [
            -115.1530066,
            44.6776324
          ],
          [
            -115.1524305,
            44.6799466
          ],
          [
            -115.1518544,
            44.6822608
          ],
          [
            -115.1512783,
            44.6845751
          ],
          [
            -115.1507022,
            44.6868893
          ],
          [
            -115.1501261,
            44.6892035
          ],
          [
            -115.1499948,
            44.6910781
          ],
          [
            -115.1498636,
            44.6929528
          ],
          [
            -115.1497323,
            44.6948274
          ],
          [
            -115.149601,
            44.696702
          ],
          [
            -115.1494698,
            44.6985767
          ],
          [
            -115.1493385,
            44.7004513
          ],
          [
            -115.1477522,
            44.7025496
          ],
          [
            -115.1461659,
            44.7046478
          ],
          [
            -115.1445796,
            44.706746
          ],
          [
            -115.1429934,
            44.7088443
          ],
          [
            -115.1414071,
            44.7109425
          ],
          [
            -115.1398208,
            44.7130408
          ],
          [
            -115.1413408,
            44.7146043
          ],
          [
            -115.1428609,
            44.7161677
          ],
          [
            -115.1443809,
            44.7177312
          ],
          [
            -115.1459009,
            44.7192947
          ],
          [
            -115.147421,
            44.7208581
          ],
          [
            -115.148941,
            44.7224216
          ],
          [
            -115.148024,
            44.7242444
          ],
          [
            -115.1471069,
            44.7260672
          ],
          [
            -115.1461899,
            44.72789
          ],
          [
            -115.1452729,
            44.7297129
          ],
          [
            -115.1443558,
            44.7315357
          ],
          [
            -115.1434388,
            44.7333585
          ],
          [
            -115.1416779,
            44.7353535
          ],
          [
            -115.1399169,
            44.7373485
          ],
          [
            -115.138156,
            44.7393436
          ],
          [
            -115.1363951,
            44.7413386
          ],
          [
            -115.1346341,
            44.7433336
          ],
          [
            -115.1328732,
            44.7453286
          ],
          [
            -115.1304499,
            44.7469578
          ],
          [
            -115.1280267,
            44.748587
          ],
          [
            -115.1256034,
            44.7502162
          ],
          [
            -115.1231802,
            44.7518454
          ],
          [
            -115.120757,
            44.7534746
          ],
          [
            -115.1183337,
            44.7551038
          ],
          [
            -115.1155979,
            44.75634
          ],
          [
            -115.1128621,
            44.7575762
          ],
          [
            -115.1101263,
            44.7588125
          ],
          [
            -115.1073904,
            44.7600487
          ],
          [
            -115.1046546,
            44.7612849
          ],
          [
            -115.1019188,
            44.7625211
          ],
          [
            -115.0995244,
            44.763991
          ],
          [
            -115.0971299,
            44.7654608
          ],
          [
            -115.0947355,
            44.7669307
          ],
          [
            -115.0923411,
            44.7684006
          ],
          [
            -115.0899466,
            44.7698704
          ],
          [
            -115.0875522,
            44.7713403
          ],
          [
            -115.0851458,
            44.770165
          ],
          [
            -115.0827393,
            44.7689896
          ],
          [
            -115.0803329,
            44.7678143
          ],
          [
            -115.0779264,
            44.766639
          ],
          [
            -115.07552,
            44.7654636
          ],
          [
            -115.0731135,
            44.7642883
          ],
          [
            -115.0707977,
            44.7630641
          ],
          [
            -115.0684818,
            44.76184
          ],
          [
            -115.0661659,
            44.7606158
          ],
          [
            -115.0638501,
            44.7593917
          ],
          [
            -115.0615343,
            44.7581675
          ],
          [
            -115.0592184,
            44.7569434
          ],
          [
            -115.0561873,
            44.7560408
          ],
          [
            -115.0531562,
            44.7551382
          ],
          [
            -115.0501251,
            44.7542355
          ],
          [
            -115.0470941,
            44.7533329
          ],
          [
            -115.044063,
            44.7524303
          ],
          [
            -115.0410319,
            44.7515277
          ],
          [
            -115.0398163,
            44.749441
          ],
          [
            -115.0386007,
            44.7473543
          ],
          [
            -115.0373852,
            44.7452677
          ],
          [
            -115.0361696,
            44.743181
          ],
          [
            -115.034954,
            44.7410943
          ],
          [
            -115.0337384,
            44.7390076
          ],
          [
            -115.0319058,
            44.7394047
          ],
          [
            -115.0300731,
            44.7398018
          ],
          [
            -115.0282405,
            44.7401989
          ],
          [
            -115.0264079,
            44.7405961
          ],
          [
            -115.0245752,
            44.7409932
          ],
          [
            -115.0227426,
            44.7413903
          ],
          [
            -115.0213736,
            44.7403661
          ],
          [
            -115.0200046,
            44.739342
          ],
          [
            -115.0186355,
            44.7383178
          ],
          [
            -115.0172665,
            44.7372936
          ],
          [
            -115.0158975,
            44.7362695
          ],
          [
            -115.0145285,
            44.7352453
          ],
          [
            -115.0146645,
            44.7331218
          ],
          [
            -115.0148005,
            44.7309983
          ],
          [
            -115.0149366,
            44.7288748
          ],
          [
            -115.0150726,
            44.7267514
          ],
          [
            -115.0152086,
            44.7246279
          ],
          [
            -115.0153446,
            44.7225044
          ],
          [
            -115.0137286,
            44.7213931
          ],
          [
            -115.0121127,
            44.7202818
          ],
          [
            -115.0104967,
            44.7191705
          ],
          [
            -115.0088807,
            44.7180592
          ],
          [
            -115.0072648,
            44.7169479
          ],
          [
            -115.0056488,
            44.7158366
          ],
          [
            -115.0049015,
            44.7176731
          ],
          [
            -115.0041543,
            44.7195095
          ],
          [
            -115.003407,
            44.721346
          ],
          [
            -115.0026598,
            44.7231825
          ],
          [
            -115.0019126,
            44.7250189
          ],
          [
            -115.0011653,
            44.7268554
          ],
          [
            -114.9981126,
            44.727366
          ],
          [
            -114.99506,
            44.7278766
          ],
          [
            -114.9920073,
            44.7283872
          ],
          [
            -114.9889547,
            44.7288977
          ],
          [
            -114.9859021,
            44.7294083
          ],
          [
            -114.9828494,
            44.7299189
          ],
          [
            -114.9801257,
            44.7289672
          ],
          [
            -114.9774019,
            44.7280155
          ],
          [
            -114.9746782,
            44.7270638
          ],
          [
            -114.9719544,
            44.7261121
          ],
          [
            -114.9692307,
            44.7251604
          ],
          [
            -114.9665069,
            44.7242087
          ],
          [
            -114.9634841,
            44.7239857
          ],
          [
            -114.9604614,
            44.7237628
          ],
          [
            -114.9574386,
            44.7235398
          ],
          [
            -114.9544158,
            44.7233168
          ],
          [
            -114.9513931,
            44.7230939
          ],
          [
            -114.9483703,
            44.7228709
          ],
          [
            -114.9465151,
            44.7243752
          ],
          [
            -114.94466,
            44.7258795
          ],
          [
            -114.9428048,
            44.7273838
          ],
          [
            -114.9409497,
            44.7288882
          ],
          [
            -114.9390945,
            44.7303925
          ],
          [
            -114.9372394,
            44.7318968
          ],
          [
            -114.9346739,
            44.7331233
          ],
          [
            -114.9321084,
            44.7343499
          ],
          [
            -114.9295429,
            44.7355764
          ],
          [
            -114.9269774,
            44.736803
          ],
          [
            -114.9244119,
            44.7380296
          ],
          [
            -114.9218464,
            44.7392561
          ],
          [
            -114.920956,
            44.7412442
          ],
          [
            -114.9200656,
            44.7432323
          ],
          [
            -114.9191752,
            44.7452204
          ],
          [
            -114.9182847,
            44.7472085
          ],
          [
            -114.9173943,
            44.7491966
          ],
          [
            -114.9165039,
            44.7511847
          ],
          [
            -114.9144133,
            44.7523466
          ],
          [
            -114.9123228,
            44.7535085
          ],
          [
            -114.9102322,
            44.7546704
          ],
          [
            -114.9081416,
            44.7558323
          ],
          [
            -114.9060511,
            44.7569942
          ],
          [
            -114.9039605,
            44.7581561
          ],
          [
            -114.9019952,
            44.7595625
          ],
          [
            -114.9000298,
            44.7609689
          ],
          [
            -114.8980645,
            44.7623753
          ],
          [
            -114.8960992,
            44.7637818
          ],
          [
            -114.8941338,
            44.7651882
          ],
          [
            -114.8921685,
            44.7665946
          ],
          [
            -114.8897729,
            44.7681739
          ],
          [
            -114.8873773,
            44.7697531
          ],
          [
            -114.8849817,
            44.7713324
          ],
          [
            -114.8825861,
            44.7729117
          ],
          [
            -114.8801905,
            44.7744909
          ],
          [
            -114.8777949,
            44.7760702
          ],
          [
            -114.8750675,
            44.7772579
          ],
          [
            -114.8723401,
            44.7784456
          ],
          [
            -114.8696127,
            44.7796333
          ],
          [
            -114.8668853,
            44.7808211
          ],
          [
            -114.8641579,
            44.7820088
          ],
          [
            -114.8614305,
            44.7831965
          ],
          [
            -114.8596642,
            44.7837819
          ],
          [
            -114.8578979,
            44.7843674
          ],
          [
            -114.8561316,
            44.7849528
          ],
          [
            -114.8543653,
            44.7855382
          ],
          [
            -114.852599,
            44.7861237
          ],
          [
            -114.8508327,
            44.7867091
          ],
          [
            -114.8489352,
            44.788274
          ],
          [
            -114.8470378,
            44.7898388
          ],
          [
            -114.8451403,
            44.7914037
          ],
          [
            -114.8432428,
            44.7929685
          ],
          [
            -114.8413454,
            44.7945334
          ],
          [
            -114.8394479,
            44.7960982
          ],
          [
            -114.8371143,
            44.7972405
          ],
          [
            -114.8347807,
            44.7983828
          ],
          [
            -114.8324471,
            44.7995251
          ],
          [
            -114.8301135,
            44.8006674
          ],
          [
            -114.8277799,
            44.8018097
          ],
          [
            -114.8254463,
            44.802952
          ],
          [
            -114.8228588,
            44.8042788
          ],
          [
            -114.8202714,
            44.8056056
          ],
          [
            -114.8176839,
            44.8069324
          ],
          [
            -114.8150964,
            44.8082592
          ],
          [
            -114.812509,
            44.809586
          ],
          [
            -114.8099215,
            44.8109128
          ],
          [
            -114.8086135,
            44.8129954
          ],
          [
            -114.8073054,
            44.8150779
          ],
          [
            -114.8059974,
            44.8171605
          ],
          [
            -114.8046894,
            44.8192431
          ],
          [
            -114.8033813,
            44.8213256
          ],
          [
            -114.8020733,
            44.8234082
          ],
          [
            -114.8008006,
            44.8252171
          ],
          [
            -114.799528,
            44.8270259
          ],
          [
            -114.7982554,
            44.8288348
          ],
          [
            -114.7969827,
            44.8306437
          ],
          [
            -114.7957101,
            44.8324525
          ],
          [
            -114.7944374,
            44.8342614
          ],
          [
            -114.7928251,
            44.835177
          ],
          [
            -114.7912128,
            44.8360926
          ],
          [
            -114.7896005,
            44.8370082
          ],
          [
            -114.7879882,
            44.8379238
          ],
          [
            -114.7863759,
            44.8388394
          ],
          [
            -114.7847636,
            44.839755
          ],
          [
            -114.7817014,
            44.8403074
          ],
          [
            -114.7786392,
            44.8408599
          ],
          [
            -114.775577,
            44.8414123
          ],
          [
            -114.7725147,
            44.8419648
          ],
          [
            -114.7694525,
            44.8425173
          ],
          [
            -114.7663903,
            44.8430697
          ],
          [
            -114.7661496,
            44.8447631
          ],
          [
            -114.7659089,
            44.8464565
          ],
          [
            -114.7656683,
            44.8481499
          ],
          [
            -114.7654276,
            44.8498434
          ],
          [
            -114.7651869,
            44.8515368
          ],
          [
            -114.7649462,
            44.8532302
          ],
          [
            -114.7655555,
            44.8550388
          ],
          [
            -114.7661649,
            44.8568474
          ],
          [
            -114.7667742,
            44.8586559
          ],
          [
            -114.7673835,
            44.8604645
          ],
          [
            -114.7679929,
            44.8622731
          ],
          [
            -114.7686022,
            44.8640817
          ],
          [
            -114.7676781,
            44.8659905
          ],
          [
            -114.7667539,
            44.8678993
          ],
          [
            -114.7658298,
            44.8698081
          ],
          [
            -114.7649057,
            44.8717168
          ],
          [
            -114.7639815,
            44.8736256
          ],
          [
            -114.7630574,
            44.8755344
          ],
          [
            -114.7612324,
            44.8760169
          ],
          [
            -114.7594073,
            44.8764993
          ],
          [
            -114.7575823,
            44.8769818
          ],
          [
            -114.7557573,
            44.8774643
          ],
          [
            -114.7539322,
            44.8779467
          ],
          [
            -114.7521072,
            44.8784292
          ],
          [
            -114.7488916,
            44.878639
          ],
          [
            -114.745676,
            44.8788489
          ],
          [
            -114.7424604,
            44.8790587
          ],
          [
            -114.7392447,
            44.8792685
          ],
          [
            -114.7360291,
            44.8794784
          ],
          [
            -114.7328135,
            44.8796882
          ],
          [
            -114.7312738,
            44.8815384
          ],
          [
            -114.7297341,
            44.8833885
          ],
          [
            -114.7281944,
            44.8852387
          ],
          [
            -114.7266547,
            44.8870889
          ],
          [
            -114.725115,
            44.888939
          ],
          [
            -114.7235753,
            44.8907892
          ],
          [
            -114.7243776,
            44.8921789
          ],
          [
            -114.7251799,
            44.8935685
          ],
          [
            -114.7259822,
            44.8949582
          ],
          [
            -114.7267846,
            44.8963479
          ],
          [
            -114.7275869,
            44.8977375
          ],
          [
            -114.7283892,
            44.8991272
          ],
          [
            -114.7290907,
            44.9011993
          ],
          [
            -114.7297922,
            44.9032714
          ],
          [
            -114.7304937,
            44.9053435
          ],
          [
            -114.7311953,
            44.9074155
          ],
          [
            -114.7318968,
            44.9094876
          ],
          [
            -114.7325983,
            44.9115597
          ],
          [
            -114.7328788,
            44.9134478
          ],
          [
            -114.7331592,
            44.915336
          ],
          [
            -114.7334397,
            44.9172241
          ],
          [
            -114.7337202,
            44.9191123
          ],
          [
            -114.7340006,
            44.9210005
          ],
          [
            -114.7342811,
            44.9228886
          ],
          [
            -114.7326254,
            44.9244899
          ],
          [
            -114.7309697,
            44.9260912
          ],
          [
            -114.729314,
            44.9276924
          ],
          [
            -114.7276584,
            44.9292937
          ],
          [
            -114.7260027,
            44.930895
          ],
          [
            -114.724347,
            44.9324963
          ],
          [
            -114.7246662,
            44.934741
          ],
          [
            -114.7249854,
            44.9369857
          ],
          [
            -114.7253046,
            44.9392304
          ],
          [
            -114.7256238,
            44.9414752
          ],
          [
            -114.725943,
            44.9437199
          ],
          [
            -114.7262622,
            44.9459646
          ],
          [
            -114.7275872,
            44.9475095
          ],
          [
            -114.7289123,
            44.9490543
          ],
          [
            -114.7302373,
            44.9505992
          ],
          [
            -114.7315623,
            44.9521441
          ],
          [
            -114.7328874,
            44.9536889
          ],
          [
            -114.7342124,
            44.9552338
          ],
          [
            -114.7336179,
            44.9575547
          ],
          [
            -114.7330234,
            44.9598756
          ],
          [
            -114.7324289,
            44.9621966
          ],
          [
            -114.7318345,
            44.9645175
          ],
          [
            -114.73124,
            44.9668384
          ],
          [
            -114.7306455,
            44.9691593
          ],
          [
            -114.7311243,
            44.9711176
          ],
          [
            -114.7316031,
            44.9730759
          ],
          [
            -114.7320819,
            44.9750341
          ],
          [
            -114.7325608,
            44.9769924
          ],
          [
            -114.7330396,
            44.9789507
          ],
          [
            -114.7335184,
            44.980909
          ],
          [
            -114.7329753,
            44.9832041
          ],
          [
            -114.7324321,
            44.9854992
          ],
          [
            -114.731889,
            44.9877944
          ],
          [
            -114.7313459,
            44.9900895
          ],
          [
            -114.7308027,
            44.9923846
          ],
          [
            -114.7302596,
            44.9946797
          ],
          [
            -114.7289663,
            44.9965323
          ],
          [
            -114.727673,
            44.998385
          ],
          [
            -114.7263796,
            45.0002377
          ],
          [
            -114.7250863,
            45.0020903
          ],
          [
            -114.723793,
            45.0039429
          ],
          [
            -114.7224997,
            45.0057956
          ],
          [
            -114.7231546,
            45.007685
          ],
          [
            -114.7238094,
            45.0095743
          ],
          [
            -114.7244643,
            45.0114637
          ],
          [
            -114.7251192,
            45.0133531
          ],
          [
            -114.725774,
            45.0152424
          ],
          [
            -114.7264289,
            45.0171318
          ],
          [
            -114.7262401,
            45.0193342
          ],
          [
            -114.7260513,
            45.0215366
          ],
          [
            -114.7258624,
            45.0237391
          ],
          [
            -114.7256736,
            45.0259415
          ],
          [
            -114.7254848,
            45.0281439
          ],
          [
            -114.725296,
            45.0303463
          ],
          [
            -114.7250723,
            45.0324155
          ],
          [
            -114.7248486,
            45.0344847
          ],
          [
            -114.7246249,
            45.0365539
          ],
          [
            -114.7244013,
            45.038623
          ],
          [
            -114.7241776,
            45.0406922
          ],
          [
            -114.7239539,
            45.0427614
          ],
          [
            -114.7238715,
            45.0448343
          ],
          [
            -114.7237891,
            45.0469072
          ],
          [
            -114.7237067,
            45.04898
          ],
          [
            -114.7236243,
            45.0510529
          ],
          [
            -114.7235419,
            45.0531258
          ],
          [
            -114.7234595,
            45.0551987
          ],
          [
            -114.7239259,
            45.057313
          ],
          [
            -114.7243923,
            45.0594273
          ],
          [
            -114.7248588,
            45.0615416
          ],
          [
            -114.7253252,
            45.063656
          ],
          [
            -114.7257916,
            45.0657703
          ],
          [
            -114.726258,
            45.0678846
          ],
          [
            -114.72606,
            45.0700488
          ],
          [
            -114.725862,
            45.072213
          ],
          [
            -114.7256639,
            45.0743772
          ],
          [
            -114.7254659,
            45.0765413
          ],
          [
            -114.7252679,
            45.0787055
          ],
          [
            -114.7250699,
            45.0808697
          ],
          [
            -114.7253725,
            45.0824732
          ],
          [
            -114.725675,
            45.0840768
          ],
          [
            -114.7259776,
            45.0856804
          ],
          [
            -114.7262802,
            45.0872839
          ],
          [
            -114.7265827,
            45.0888875
          ],
          [
            -114.7268853,
            45.090491
          ],
          [
            -114.7273862,
            45.0924415
          ],
          [
            -114.7278871,
            45.0943919
          ],
          [
            -114.7283881,
            45.0963424
          ],
          [
            -114.728889,
            45.0982928
          ],
          [
            -114.7293899,
            45.1002432
          ],
          [
            -114.7298908,
            45.1021937
          ],
          [
            -114.7291644,
            45.1042189
          ],
          [
            -114.728438,
            45.106244
          ],
          [
            -114.7277116,
            45.1082691
          ],
          [
            -114.7269851,
            45.1102943
          ],
          [
            -114.7262587,
            45.1123195
          ],
          [
            -114.7255323,
            45.1143446
          ],
          [
            -114.7256373,
            45.1164462
          ],
          [
            -114.7257422,
            45.1185478
          ],
          [
            -114.7258472,
            45.1206494
          ],
          [
            -114.7259522,
            45.1227509
          ],
          [
            -114.7260571,
            45.1248525
          ],
          [
            -114.7261621,
            45.1269541
          ],
          [
            -114.7264737,
            45.1291907
          ],
          [
            -114.7267853,
            45.1314274
          ],
          [
            -114.7270969,
            45.1336641
          ],
          [
            -114.7274085,
            45.1359007
          ],
          [
            -114.7277201,
            45.1381374
          ],
          [
            -114.7280317,
            45.140374
          ],
          [
            -114.7284399,
            45.1425906
          ],
          [
            -114.728848,
            45.1448072
          ],
          [
            -114.7292561,
            45.1470238
          ],
          [
            -114.7296643,
            45.1492404
          ],
          [
            -114.7300725,
            45.151457
          ],
          [
            -114.7304806,
            45.1536736
          ],
          [
            -114.7291531,
            45.1557572
          ],
          [
            -114.7278255,
            45.1578407
          ],
          [
            -114.726498,
            45.1599243
          ],
          [
            -114.7251705,
            45.1620079
          ],
          [
            -114.7238429,
            45.1640914
          ],
          [
            -114.7225154,
            45.166175
          ],
          [
            -114.7224532,
            45.1684767
          ],
          [
            -114.7223911,
            45.1707784
          ],
          [
            -114.7223289,
            45.1730802
          ],
          [
            -114.7222667,
            45.1753819
          ],
          [
            -114.7222046,
            45.1776836
          ],
          [
            -114.7221424,
            45.1799853
          ],
          [
            -114.7199175,
            45.1812468
          ],
          [
            -114.7176927,
            45.1825082
          ],
          [
            -114.7154678,
            45.1837697
          ],
          [
            -114.7132429,
            45.1850312
          ],
          [
            -114.7110181,
            45.1862926
          ],
          [
            -114.7087932,
            45.1875541
          ],
          [
            -114.7065453,
            45.1889917
          ],
          [
            -114.7042974,
            45.1904293
          ],
          [
            -114.7020495,
            45.1918668
          ],
          [
            -114.6998017,
            45.1933044
          ],
          [
            -114.6975538,
            45.194742
          ],
          [
            -114.6953059,
            45.1961796
          ],
          [
            -114.6936034,
            45.1981899
          ],
          [
            -114.691901,
            45.2002001
          ],
          [
            -114.6901985,
            45.2022104
          ],
          [
            -114.6884961,
            45.2042207
          ],
          [
            -114.6867936,
            45.2062309
          ],
          [
            -114.6850912,
            45.2082412
          ],
          [
            -114.6844103,
            45.2103698
          ],
          [
            -114.6837294,
            45.2124984
          ],
          [
            -114.6830485,
            45.214627
          ],
          [
            -114.6823675,
            45.2167556
          ],
          [
            -114.6816866,
            45.2188842
          ],
          [
            -114.6810057,
            45.2210128
          ],
          [
            -114.6799065,
            45.2231859
          ],
          [
            -114.6788074,
            45.2253589
          ],
          [
            -114.6777082,
            45.2275319
          ],
          [
            -114.676609,
            45.229705
          ],
          [
            -114.6755099,
            45.231878
          ],
          [
            -114.6744107,
            45.2340511
          ],
          [
            -114.672009,
            45.2354536
          ],
          [
            -114.6696073,
            45.2368561
          ],
          [
            -114.6672056,
            45.2382585
          ],
          [
            -114.6648038,
            45.239661
          ],
          [
            -114.6624021,
            45.2410635
          ],
          [
            -114.6600004,
            45.242466
          ],
          [
            -114.65847,
            45.2443588
          ],
          [
            -114.6569396,
            45.2462516
          ],
          [
            -114.6554091,
            45.2481444
          ],
          [
            -114.6538787,
            45.2500373
          ],
          [
            -114.6523483,
            45.2519301
          ],
          [
            -114.6508179,
            45.2538229
          ],
          [
            -114.648567,
            45.2552895
          ],
          [
            -114.6463161,
            45.2567561
          ],
          [
            -114.6440652,
            45.2582228
          ],
          [
            -114.6418142,
            45.2596894
          ],
          [
            -114.6395633,
            45.261156
          ],
          [
            -114.6373124,
            45.2626226
          ],
          [
            -114.6353097,
            45.2644459
          ],
          [
            -114.633307,
            45.2662692
          ],
          [
            -114.6313042,
            45.2680924
          ],
          [
            -114.6293015,
            45.2699157
          ],
          [
            -114.6272988,
            45.271739
          ],
          [
            -114.6252961,
            45.2735623
          ],
          [
            -114.6224761,
            45.2747757
          ],
          [
            -114.6196561,
            45.2759891
          ],
          [
            -114.6168361,
            45.2772025
          ],
          [
            -114.6140162,
            45.2784159
          ],
          [
            -114.6111962,
            45.2796293
          ],
          [
            -114.6083762,
            45.2808427
          ],
          [
            -114.6066559,
            45.2827826
          ],
          [
            -114.6049356,
            45.2847225
          ],
          [
            -114.6032153,
            45.2866624
          ],
          [
            -114.6014951,
            45.2886023
          ],
          [
            -114.5997748,
            45.2905422
          ],
          [
            -114.5980545,
            45.2924821
          ],
          [
            -114.5989724,
            45.2930489
          ],
          [
            -114.5998903,
            45.2936157
          ],
          [
            -114.6008082,
            45.2941826
          ],
          [
            -114.601726,
            45.2947494
          ],
          [
            -114.6026439,
            45.2953162
          ],
          [
            -114.6035618,
            45.295883
          ],
          [
            -114.6061517,
            45.2973861
          ],
          [
            -114.6087415,
            45.2988891
          ],
          [
            -114.6113314,
            45.3003922
          ],
          [
            -114.6139212,
            45.3018952
          ],
          [
            -114.616511,
            45.3033983
          ],
          [
            -114.6191009,
            45.3049013
          ],
          [
            -114.6211341,
            45.3067694
          ],
          [
            -114.6231674,
            45.3086375
          ],
          [
            -114.6252006,
            45.3105056
          ],
          [
            -114.6272338,
            45.3123738
          ],
          [
            -114.6292671,
            45.3142419
          ],
          [
            -114.6313003,
            45.31611
          ],
          [
            -114.6338243,
            45.3174974
          ],
          [
            -114.6363483,
            45.3188849
          ],
          [
            -114.6388723,
            45.3202723
          ],
          [
            -114.6413962,
            45.3216597
          ],
          [
            -114.6439202,
            45.3230472
          ],
          [
            -114.6464442,
            45.3244346
          ],
          [
            -114.6486117,
            45.326175
          ],
          [
            -114.6507793,
            45.3279154
          ],
          [
            -114.6529468,
            45.3296558
          ],
          [
            -114.6551143,
            45.3313961
          ],
          [
            -114.6572819,
            45.3331365
          ],
          [
            -114.6594494,
            45.3348769
          ],
          [
            -114.6614553,
            45.3364869
          ],
          [
            -114.6634611,
            45.3380969
          ],
          [
            -114.665467,
            45.339707
          ],
          [
            -114.6674729,
            45.341317
          ],
          [
            -114.6694787,
            45.342927
          ],
          [
            -114.6714846,
            45.344537
          ],
          [
            -114.6723609,
            45.3467774
          ],
          [
            -114.6732372,
            45.3490179
          ],
          [
            -114.6741136,
            45.3512583
          ],
          [
            -114.6749899,
            45.3534987
          ],
          [
            -114.6758662,
            45.3557392
          ],
          [
            -114.6767425,
            45.3579796
          ],
          [
            -114.6780387,
            45.3591681
          ],
          [
            -114.6793349,
            45.3603567
          ],
          [
            -114.6806312,
            45.3615452
          ],
          [
            -114.6819274,
            45.3627337
          ],
          [
            -114.6832236,
            45.3639223
          ],
          [
            -114.6845198,
            45.3651108
          ]
        ]
      }
    }
  ]
}