{
  "type": "FeatureCollection",
  "features": [
    {
      "type": "Feature",
      "properties": {
        "name": "Main Salmon River",
        "source": "RiverMaps 5th Ed. mileage markers",
        "vertex_miles": [
          0,
          0.167,
          0.333,
          0.5,
          0.667,
          0.833,
          1,
          1.167,
          1.333,
          1.5,
          1.667,
          1.833,
          2,
          2.167,
          2.333,
          2.5,
          2.667,
          2.833,
          3,
          3.167,
          3.333,
          3.5,
          3.667,
          3.833,
          4,
          4.167,
          4.333,
          4.5,
          4.667,
          4.833,
          5,
          5.167,
          5.333,
          5.5,
          5.667,
          5.833,
          6,
          6.167,
          6.333,
          6.5,
          6.667,
          6.833,
          7,
          7.167,
          7.333,
          7.5,
          7.667,
          7.833,
          8,
          8.167,
          8.333,
          8.5,
          8.667,
          8.833,
          9,
          9.167,
          9.333,
          9.5,
          9.667,
          9.833,
          10,
          10.167,
          10.333,
          10.5,
          10.667,
          10.833,
          11,
          11.167,
          11.333,
          11.5,
          11.667,
          11.833,
          12,
          12.167,
          12.333,
          12.5,
          12.667,
          12.833,
          13,
          13.167,
          13.333,
          13.5,
          13.667,
          13.833,
          14,
          14.167,
          14.333,
          14.5,
          14.667,
          14.833,
          15,
          15.167,
          15.333,
          15.5,
          15.667,
          15.833,
          16,
          16.167,
          16.333,
          16.5,
          16.667,
          16.833,
          17,
          17.167,
          17.333,
          17.5,
          17.667,
          17.833,
          18,
          18.167,
          18.333,
          18.5,
          18.667,
          18.833,
          19,
          19.167,
          19.333,
          19.5,
          19.667,
          19.833,
          20,
          20.167,
          20.333,
          20.5,
          20.667,
          20.833,
          21,
          21.167,
          21.333,
          21.5,
          21.667,
          21.833,
          22,
          22.167,
          22.333,
          22.5,
          22.667,
          22.833,
          23,
          23.167,
          23.333,
          23.5,
          23.667,
          23.833,
          24,
          24.167,
          24.333,
          24.5,
          24.667,
          24.833,
          25,
          25.167,
          25.333,
          25.5,
          25.667,
          25.833,
          26,
          26.167,
          26.333,
          26.5,
          26.667,
          26.833,
          27,
          27.167,
          27.333,
          27.5,
          27.667,
          27.833,
          28,
          28.167,
          28.333,
          28.5,
          28.667,
          28.833,
          29,
          29.167,
          29.333,
          29.5,
          29.667,
          29.833,
          30,
          30.167,
          30.333,
          30.5,
          30.667,
          30.833,
          31,
          31.167,
          31.333,
          31.5,
          31.667,
          31.833,
          32,
          32.167,
          32.333,
          32.5,
          32.667,
          32.833,
          33,
          33.167,
          33.333,
          33.5,
          33.667,
          33.833,
          34,
          34.167,
          34.333,
          34.5,
          34.667,
          34.833,
          35,
          35.167,
          35.333,
          35.5,
          35.667,
          35.833,
          36,
          36.167,
          36.333,
          36.5,
          36.667,
          36.833,
          37,
          37.167,
          37.333,
          37.5,
          37.667,
          37.833,
          38,
          38.167,
          38.333,
          38.5,
          38.667,
          38.833,
          39,
          39.167,
          39.333,
          39.5,
          39.667,
          39.833,
          40,
          40.167,
          40.333,
          40.5,
          40.667,
          40.833,
          41,
          41.167,
          41.333,
          41.5,
          41.667,
          41.833,
          42,
          42.167,
          42.333,
          42.5,
          42.667,
          42.833,
          43,
          43.167,
          43.333,
          43.5,
          43.667,
          43.833,
          44,
          44.167,
          44.333,
          44.5,
          44.667,
          44.833,
          45,
          45.167,
          45.333,
          45.5,
          45.667,
          45.833,
          46,
          46.167,
          46.333,
          46.5,
          46.667,
          46.833,
          47,
          47.167,
          47.333,
          47.5,
          47.667,
          47.833,
          48,
          48.167,
          48.333,
          48.5,
          48.667,
          48.833,
          49,
          49.167,
          49.333,
          49.5,
          49.667,
          49.833,
          50,
          50.167,
          50.333,
          50.5,
          50.667,
          50.833,
          51,
          51.167,
          51.333,
          51.5,
          51.667,
          51.833,
          52,
          52.167,
          52.333,
          52.5,
          52.667,
          52.833,
          53,
          53.167,
          53.333,
          53.5,
          53.667,
          53.833,
          54,
          54.167,
          54.333,
          54.5,
          54.667,
          54.833,
          55,
          55.167,
          55.333,
          55.5,
          55.667,
          55.833,
          56,
          56.167,
          56.333,
          56.5,
          56.667,
          56.833,
          57,
          57.167,
          57.333,
          57.5,
          57.667,
          57.833,
          58,
          58.167,
          58.333,
          58.5,
          58.667,
          58.833,
          59,
          59.167,
          59.333,
          59.5,
          59.667,
          59.833,
          60,
          60.167,
          60.333,
          60.5,
          60.667,
          60.833,
          61,
          61.167,
          61.333,
          61.5,
          61.667,
          61.833,
          62,
          62.167,
          62.333,
          62.5,
          62.667,
          62.833,
          63,
          63.167,
          63.333,
          63.5,
          63.667,
          63.833,
          64,
          64.167,
          64.333,
          64.5,
          64.667,
          64.833,
          65,
          65.167,
          65.333,
          65.5,
          65.667,
          65.833,
          66,
          66.167,
          66.333,
          66.5,
          66.667,
          66.833,
          67,
          67.167,
          67.333,
          67.5,
          67.667,
          67.833,
          68,
          68.167,
          68.333,
          68.5,
          68.667,
          68.833,
          69,
          69.167,
          69.333,
          69.5,
          69.667,
          69.833,
          70,
          70.167,
          70.333,
          70.5,
          70.667,
          70.833,
          71,
          71.167,
          71.333,
          71.5,
          71.667,
          71.833,
          72,
          72.167,
          72.333,
          72.5,
          72.667,
          72.833,
          73,
          73.167,
          73.333,
          73.5,
          73.667,
          73.833,
          74,
          74.167,
          74.333,
          74.5,
          74.667,
          74.833,
          75,
          75.167,
          75.333,
          75.5,
          75.667,
          75.833,
          76,
          76.167,
          76.333,
          76.5,
          76.667,
          76.833,
          77,
          77.167,
          77.333,
          77.5,
          77.667,
          77.833,
          78,
          78.167,
          78.333,
          78.5,
          78.667,
          78.833,
          79,
          79.167,
          79.333,
          79.5,
          79.667,
          79.833,
          80
        ],
        "total_miles": 80.0
      },
      "geometry": {
        "type": "LineString",
        "coordinates": [
          [
            -114.6881923,
            45.3696399
          ],
          [
            -114.6900551,
            45.3708896
          ],
          [
            -114.691918,
            45.3721392
          ],
          [
            -114.6937808,
            45.3733889
          ],
          [
            -114.6956436,
            45.3746386
          ],
          [
            -114.6975065,
            45.3758882
          ],
          [
            -114.6993693,
            45.3771379
          ],
          [
            -114.7010896,
            45.3788675
          ],
          [
            -114.7028098,
            45.3805971
          ],
          [
            -114.7045301,
            45.3823266
          ],
          [
            -114.7062504,
            45.3840562
          ],
          [
            -114.7079706,
            45.3857858
          ],
          [
            -114.7096909,
            45.3875154
          ],
          [
            -114.7119002,
            45.3891234
          ],
          [
            -114.7141096,
            45.3907315
          ],
          [
            -114.716319,
            45.3923395
          ],
          [
            -114.7185283,
            45.3939475
          ],
          [
            -114.7207377,
            45.3955556
          ],
          [
            -114.722947,
            45.3971636
          ],
          [
            -114.726227,
            45.3967153
          ],
          [
            -114.729507,
            45.396267
          ],
          [
            -114.732787,
            45.3958188
          ],
          [
            -114.7360669,
            45.3953705
          ],
          [
            -114.7393469,
            45.3949222
          ],
          [
            -114.7426269,
            45.3944739
          ],
          [
            -114.7457863,
            45.3941181
          ],
          [
            -114.7489456,
            45.3937623
          ],
          [
            -114.752105,
            45.3934065
          ],
          [
            -114.7552643,
            45.3930507
          ],
          [
            -114.7584236,
            45.3926949
          ],
          [
            -114.761583,
            45.3923391
          ],
          [
            -114.7649408,
            45.3920602
          ],
          [
            -114.7682986,
            45.3917814
          ],
          [
            -114.7716564,
            45.3915025
          ],
          [
            -114.7750143,
            45.3912236
          ],
          [
            -114.7783721,
            45.3909448
          ],
          [
            -114.7817299,
            45.3906659
          ],
          [
            -114.784912,
            45.3910238
          ],
          [
            -114.788094,
            45.3913817
          ],
          [
            -114.791276,
            45.3917397
          ],
          [
            -114.7944581,
            45.3920976
          ],
          [
            -114.7976402,
            45.3924555
          ],
          [
            -114.8008222,
            45.3928134
          ],
          [
            -114.8038419,
            45.3933557
          ],
          [
            -114.8068616,
            45.3938981
          ],
          [
            -114.8098813,
            45.3944405
          ],
          [
            -114.812901,
            45.3949828
          ],
          [
            -114.8159207,
            45.3955251
          ],
          [
            -114.8189404,
            45.3960675
          ],
          [
            -114.8215539,
            45.3975005
          ],
          [
            -114.8241674,
            45.3989335
          ],
          [
            -114.8267809,
            45.4003665
          ],
          [
            -114.8293945,
            45.4017995
          ],
          [
            -114.832008,
            45.4032325
          ],
          [
            -114.8346215,
            45.4046655
          ],
          [
            -114.8371572,
            45.406257
          ],
          [
            -114.8396928,
            45.4078485
          ],
          [
            -114.8422285,
            45.40944
          ],
          [
            -114.8447642,
            45.4110315
          ],
          [
            -114.8472998,
            45.412623
          ],
          [
            -114.8498355,
            45.4142145
          ],
          [
            -114.8526918,
            45.4149512
          ],
          [
            -114.8555481,
            45.415688
          ],
          [
            -114.8584044,
            45.4164247
          ],
          [
            -114.8612607,
            45.4171614
          ],
          [
            -114.864117,
            45.4178982
          ],
          [
            -114.8669733,
            45.4186349
          ],
          [
            -114.8697491,
            45.4196029
          ],
          [
            -114.8725248,
            45.4205709
          ],
          [
            -114.8753006,
            45.4215389
          ],
          [
            -114.8780764,
            45.422507
          ],
          [
            -114.8808521,
            45.423475
          ],
          [
            -114.8836279,
            45.424443
          ],
          [
            -114.8852546,
            45.4263609
          ],
          [
            -114.8868813,
            45.4282789
          ],
          [
            -114.888508,
            45.4301969
          ],
          [
            -114.8901348,
            45.4321148
          ],
          [
            -114.8917615,
            45.4340328
          ],
          [
            -114.8933882,
            45.4359507
          ],
          [
            -114.8959879,
            45.4373924
          ],
          [
            -114.8985876,
            45.4388341
          ],
          [
            -114.9011874,
            45.4402758
          ],
          [
            -114.9037871,
            45.4417176
          ],
          [
            -114.9063868,
            45.4431593
          ],
          [
            -114.9089865,
            45.444601
          ],
          [
            -114.9118507,
            45.4453629
          ],
          [
            -114.9147149,
            45.4461249
          ],
          [
            -114.9175791,
            45.4468868
          ],
          [
            -114.9204433,
            45.4476487
          ],
          [
            -114.9233075,
            45.4484107
          ],
          [
            -114.9261717,
            45.4491726
          ],
          [
            -114.9280805,
            45.4510108
          ],
          [
            -114.9299893,
            45.4528491
          ],
          [
            -114.9318981,
            45.4546874
          ],
          [
            -114.9338068,
            45.4565256
          ],
          [
            -114.9357156,
            45.4583638
          ],
          [
            -114.9376244,
            45.4602021
          ],
          [
            -114.9402893,
            45.4612566
          ],
          [
            -114.9429541,
            45.462311
          ],
          [
            -114.945619,
            45.4633655
          ],
          [
            -114.9482839,
            45.46442
          ],
          [
            -114.9509487,
            45.4654744
          ],
          [
            -114.9536136,
            45.4665289
          ],
          [
            -114.9559556,
            45.4680457
          ],
          [
            -114.9582976,
            45.4695625
          ],
          [
            -114.9606396,
            45.4710793
          ],
          [
            -114.9629817,
            45.472596
          ],
          [
            -114.9653237,
            45.4741128
          ],
          [
            -114.9676657,
            45.4756296
          ],
          [
            -114.9695936,
            45.477527
          ],
          [
            -114.9715215,
            45.4794244
          ],
          [
            -114.9734493,
            45.4813217
          ],
          [
            -114.9753772,
            45.4832191
          ],
          [
            -114.9773051,
            45.4851165
          ],
          [
            -114.979233,
            45.4870139
          ],
          [
            -114.9814894,
            45.4883959
          ],
          [
            -114.9837458,
            45.4897779
          ],
          [
            -114.9860021,
            45.4911599
          ],
          [
            -114.9882585,
            45.4925418
          ],
          [
            -114.9905149,
            45.4939238
          ],
          [
            -114.9927713,
            45.4953058
          ],
          [
            -114.9955868,
            45.4966472
          ],
          [
            -114.9984024,
            45.4979886
          ],
          [
            -115.0012179,
            45.49933
          ],
          [
            -115.0040335,
            45.5006714
          ],
          [
            -115.006849,
            45.5020128
          ],
          [
            -115.0096646,
            45.5033542
          ],
          [
            -115.0126644,
            45.5039596
          ],
          [
            -115.0156642,
            45.504565
          ],
          [
            -115.0186639,
            45.5051704
          ],
          [
            -115.0216637,
            45.5057757
          ],
          [
            -115.0246635,
            45.5063811
          ],
          [
            -115.0276633,
            45.5069865
          ],
          [
            -115.0305383,
            45.508004
          ],
          [
            -115.0334133,
            45.5090215
          ],
          [
            -115.0362884,
            45.510039
          ],
          [
            -115.0391634,
            45.5110565
          ],
          [
            -115.0420384,
            45.512074
          ],
          [
            -115.0449134,
            45.5130915
          ],
          [
            -115.0478346,
            45.5125296
          ],
          [
            -115.0507559,
            45.5119677
          ],
          [
            -115.0536771,
            45.5114058
          ],
          [
            -115.0565983,
            45.5108438
          ],
          [
            -115.0595196,
            45.5102819
          ],
          [
            -115.0624408,
            45.50972
          ],
          [
            -115.0645466,
            45.5109763
          ],
          [
            -115.0666524,
            45.5122326
          ],
          [
            -115.0687582,
            45.5134889
          ],
          [
            -115.070864,
            45.5147453
          ],
          [
            -115.0729698,
            45.5160016
          ],
          [
            -115.0750756,
            45.5172579
          ],
          [
            -115.077956,
            45.5180304
          ],
          [
            -115.0808363,
            45.5188029
          ],
          [
            -115.0837166,
            45.5195753
          ],
          [
            -115.086597,
            45.5203478
          ],
          [
            -115.0894773,
            45.5211203
          ],
          [
            -115.0923577,
            45.5218928
          ],
          [
            -115.0951011,
            45.5232629
          ],
          [
            -115.0978445,
            45.5246331
          ],
          [
            -115.100588,
            45.5260032
          ],
          [
            -115.1033314,
            45.5273733
          ],
          [
            -115.1060748,
            45.5287435
          ],
          [
            -115.1088182,
            45.5301136
          ],
          [
            -115.1117434,
            45.5312384
          ],
          [
            -115.1146685,
            45.5323631
          ],
          [
            -115.1175937,
            45.5334879
          ],
          [
            -115.1205189,
            45.5346127
          ],
          [
            -115.123444,
            45.5357374
          ],
          [
            -115.1263692,
            45.5368622
          ],
          [
            -115.1293423,
            45.5379861
          ],
          [
            -115.1323154,
            45.53911
          ],
          [
            -115.1352885,
            45.5402338
          ],
          [
            -115.1382617,
            45.5413577
          ],
          [
            -115.1412348,
            45.5424816
          ],
          [
            -115.1442079,
            45.5436055
          ],
          [
            -115.1470994,
            45.5447553
          ],
          [
            -115.149991,
            45.5459051
          ],
          [
            -115.1528825,
            45.5470549
          ],
          [
            -115.155774,
            45.5482047
          ],
          [
            -115.1586656,
            45.5493545
          ],
          [
            -115.1615571,
            45.5505043
          ],
          [
            -115.1634622,
            45.5523977
          ],
          [
            -115.1653672,
            45.5542911
          ],
          [
            -115.1672723,
            45.5561845
          ],
          [
            -115.1691774,
            45.5580779
          ],
          [
            -115.1710824,
            45.5599713
          ],
          [
            -115.1729875,
            45.5618647
          ],
          [
            -115.1759825,
            45.5627771
          ],
          [
            -115.1789775,
            45.5636894
          ],
          [
            -115.1819726,
            45.5646018
          ],
          [
            -115.1849676,
            45.5655141
          ],
          [
            -115.1879626,
            45.5664265
          ],
          [
            -115.1909576,
            45.5673388
          ],
          [
            -115.1943009,
            45.5676417
          ],
          [
            -115.1976443,
            45.5679447
          ],
          [
            -115.2009876,
            45.5682477
          ],
          [
            -115.2043309,
            45.5685506
          ],
          [
            -115.2076743,
            45.5688536
          ],
          [
            -115.2110176,
            45.5691565
          ],
          [
            -115.2131871,
            45.5677601
          ],
          [
            -115.2153567,
            45.5663637
          ],
          [
            -115.2175262,
            45.5649674
          ],
          [
            -115.2196957,
            45.563571
          ],
          [
            -115.2218653,
            45.5621746
          ],
          [
            -115.2240348,
            45.5607782
          ],
          [
            -115.2267275,
            45.5596889
          ],
          [
            -115.2294203,
            45.5585996
          ],
          [
            -115.2321131,
            45.5575103
          ],
          [
            -115.2348058,
            45.556421
          ],
          [
            -115.2374985,
            45.5553317
          ],
          [
            -115.2401913,
            45.5542424
          ],
          [
            -115.2418829,
            45.5521679
          ],
          [
            -115.2435746,
            45.5500933
          ],
          [
            -115.2452662,
            45.5480188
          ],
          [
            -115.2469578,
            45.5459443
          ],
          [
            -115.2486495,
            45.5438697
          ],
          [
            -115.2503411,
            45.5417952
          ],
          [
            -115.2533762,
            45.5412608
          ],
          [
            -115.2564112,
            45.5407263
          ],
          [
            -115.2594462,
            45.5401919
          ],
          [
            -115.2624813,
            45.5396575
          ],
          [
            -115.2655164,
            45.539123
          ],
          [
            -115.2685514,
            45.5385886
          ],
          [
            -115.271384,
            45.5376843
          ],
          [
            -115.2742167,
            45.53678
          ],
          [
            -115.2770493,
            45.5358757
          ],
          [
            -115.2798819,
            45.5349714
          ],
          [
            -115.2827146,
            45.5340671
          ],
          [
            -115.2855472,
            45.5331628
          ],
          [
            -115.2882796,
            45.5327313
          ],
          [
            -115.2910121,
            45.5322999
          ],
          [
            -115.2937445,
            45.5318685
          ],
          [
            -115.296477,
            45.531437
          ],
          [
            -115.2992095,
            45.5310056
          ],
          [
            -115.3019419,
            45.5305741
          ],
          [
            -115.304511,
            45.5290147
          ],
          [
            -115.3070802,
            45.5274553
          ],
          [
            -115.3096493,
            45.525896
          ],
          [
            -115.3122184,
            45.5243366
          ],
          [
            -115.3147876,
            45.5227772
          ],
          [
            -115.3173567,
            45.5212178
          ],
          [
            -115.3183708,
            45.5190593
          ],
          [
            -115.319385,
            45.5169008
          ],
          [
            -115.3203991,
            45.5147424
          ],
          [
            -115.3214132,
            45.5125839
          ],
          [
            -115.3224274,
            45.5104254
          ],
          [
            -115.3234415,
            45.5082669
          ],
          [
            -115.3247619,
            45.5061786
          ],
          [
            -115.3260824,
            45.5040902
          ],
          [
            -115.3274028,
            45.5020018
          ],
          [
            -115.3287232,
            45.4999135
          ],
          [
            -115.3300437,
            45.4978252
          ],
          [
            -115.3313641,
            45.4957368
          ],
          [
            -115.3327093,
            45.4939509
          ],
          [
            -115.3340545,
            45.492165
          ],
          [
            -115.3353997,
            45.4903791
          ],
          [
            -115.3367449,
            45.4885931
          ],
          [
            -115.3380901,
            45.4868072
          ],
          [
            -115.3394353,
            45.4850213
          ],
          [
            -115.3413428,
            45.4837549
          ],
          [
            -115.3432503,
            45.4824885
          ],
          [
            -115.3451578,
            45.481222
          ],
          [
            -115.3470654,
            45.4799556
          ],
          [
            -115.3489729,
            45.4786892
          ],
          [
            -115.3508804,
            45.4774228
          ],
          [
            -115.3539418,
            45.4766327
          ],
          [
            -115.3570033,
            45.4758426
          ],
          [
            -115.3600647,
            45.4750524
          ],
          [
            -115.3631261,
            45.4742623
          ],
          [
            -115.3661876,
            45.4734722
          ],
          [
            -115.369249,
            45.4726821
          ],
          [
            -115.3718387,
            45.4733066
          ],
          [
            -115.3744285,
            45.4739311
          ],
          [
            -115.3770182,
            45.4745556
          ],
          [
            -115.379608,
            45.4751801
          ],
          [
            -115.3821978,
            45.4758046
          ],
          [
            -115.3847875,
            45.4764291
          ],
          [
            -115.3870657,
            45.4748969
          ],
          [
            -115.3893439,
            45.4733646
          ],
          [
            -115.3916221,
            45.4718323
          ],
          [
            -115.3939003,
            45.4703001
          ],
          [
            -115.3961785,
            45.4687678
          ],
          [
            -115.3984567,
            45.4672356
          ],
          [
            -115.4016232,
            45.4663825
          ],
          [
            -115.4047897,
            45.4655294
          ],
          [
            -115.4079562,
            45.4646763
          ],
          [
            -115.4111228,
            45.4638232
          ],
          [
            -115.4142893,
            45.4629701
          ],
          [
            -115.4174558,
            45.462117
          ],
          [
            -115.4200802,
            45.4606512
          ],
          [
            -115.4227047,
            45.4591854
          ],
          [
            -115.4253291,
            45.4577197
          ],
          [
            -115.4279536,
            45.4562539
          ],
          [
            -115.430578,
            45.4547881
          ],
          [
            -115.4332025,
            45.4533223
          ],
          [
            -115.4347962,
            45.4512555
          ],
          [
            -115.43639,
            45.4491887
          ],
          [
            -115.4379838,
            45.447122
          ],
          [
            -115.4395775,
            45.4450552
          ],
          [
            -115.4411712,
            45.4429884
          ],
          [
            -115.442765,
            45.4409216
          ],
          [
            -115.4453577,
            45.4394693
          ],
          [
            -115.4479505,
            45.438017
          ],
          [
            -115.4505432,
            45.4365648
          ],
          [
            -115.4531359,
            45.4351125
          ],
          [
            -115.4557287,
            45.4336602
          ],
          [
            -115.4583214,
            45.4322079
          ],
          [
            -115.4590819,
            45.4299289
          ],
          [
            -115.4598425,
            45.4276498
          ],
          [
            -115.4606031,
            45.4253708
          ],
          [
            -115.4613636,
            45.4230918
          ],
          [
            -115.4621242,
            45.4208127
          ],
          [
            -115.4628847,
            45.4185337
          ],
          [
            -115.4652651,
            45.4171561
          ],
          [
            -115.4676456,
            45.4157785
          ],
          [
            -115.470026,
            45.414401
          ],
          [
            -115.4724064,
            45.4130234
          ],
          [
            -115.4747869,
            45.4116458
          ],
          [
            -115.4771673,
            45.4102682
          ],
          [
            -115.4777675,
            45.4081418
          ],
          [
            -115.4783677,
            45.4060154
          ],
          [
            -115.4789679,
            45.4038891
          ],
          [
            -115.479568,
            45.4017627
          ],
          [
            -115.4801682,
            45.3996363
          ],
          [
            -115.4807684,
            45.3975099
          ],
          [
            -115.4831096,
            45.3960343
          ],
          [
            -115.4854508,
            45.3945587
          ],
          [
            -115.487792,
            45.3930832
          ],
          [
            -115.4901333,
            45.3916076
          ],
          [
            -115.4924745,
            45.390132
          ],
          [
            -115.4948157,
            45.3886564
          ],
          [
            -115.4968812,
            45.3870218
          ],
          [
            -115.4989467,
            45.3853872
          ],
          [
            -115.5010123,
            45.3837525
          ],
          [
            -115.5030778,
            45.3821179
          ],
          [
            -115.5051433,
            45.3804833
          ],
          [
            -115.5072088,
            45.3788487
          ],
          [
            -115.5092303,
            45.3793721
          ],
          [
            -115.5112517,
            45.3798955
          ],
          [
            -115.5132732,
            45.3804189
          ],
          [
            -115.5152946,
            45.3809423
          ],
          [
            -115.5173161,
            45.3814657
          ],
          [
            -115.5193375,
            45.3819891
          ],
          [
            -115.5226127,
            45.3825299
          ],
          [
            -115.5258879,
            45.3830707
          ],
          [
            -115.5291631,
            45.3836115
          ],
          [
            -115.5324383,
            45.3841524
          ],
          [
            -115.5357135,
            45.3846932
          ],
          [
            -115.5389887,
            45.385234
          ],
          [
            -115.5423431,
            45.3852618
          ],
          [
            -115.5456975,
            45.3852897
          ],
          [
            -115.5490519,
            45.3853175
          ],
          [
            -115.5524062,
            45.3853453
          ],
          [
            -115.5557606,
            45.3853732
          ],
          [
            -115.559115,
            45.385401
          ],
          [
            -115.5620873,
            45.3865061
          ],
          [
            -115.5650595,
            45.3876112
          ],
          [
            -115.5680318,
            45.3887163
          ],
          [
            -115.571004,
            45.3898215
          ],
          [
            -115.5739763,
            45.3909266
          ],
          [
            -115.5769485,
            45.3920317
          ],
          [
            -115.5799202,
            45.3929961
          ],
          [
            -115.582892,
            45.3939605
          ],
          [
            -115.5858637,
            45.3949248
          ],
          [
            -115.5888354,
            45.3958892
          ],
          [
            -115.5918072,
            45.3968536
          ],
          [
            -115.5947789,
            45.397818
          ],
          [
            -115.5978143,
            45.3976947
          ],
          [
            -115.6008496,
            45.3975714
          ],
          [
            -115.603885,
            45.3974481
          ],
          [
            -115.6069204,
            45.3973248
          ],
          [
            -115.6099557,
            45.3972015
          ],
          [
            -115.6129911,
            45.3970782
          ],
          [
            -115.6154111,
            45.3986255
          ],
          [
            -115.6178311,
            45.4001729
          ],
          [
            -115.6202511,
            45.4017202
          ],
          [
            -115.6226711,
            45.4032675
          ],
          [
            -115.6250911,
            45.4048149
          ],
          [
            -115.6275111,
            45.4063622
          ],
          [
            -115.62972,
            45.4081247
          ],
          [
            -115.631929,
            45.4098871
          ],
          [
            -115.6341379,
            45.4116496
          ],
          [
            -115.6363468,
            45.4134121
          ],
          [
            -115.6385558,
            45.4151745
          ],
          [
            -115.6407647,
            45.416937
          ],
          [
            -115.6431339,
            45.4186187
          ],
          [
            -115.645503,
            45.4203005
          ],
          [
            -115.6478722,
            45.4219822
          ],
          [
            -115.6502414,
            45.4236639
          ],
          [
            -115.6526105,
            45.4253457
          ],
          [
            -115.6549797,
            45.4270274
          ],
          [
            -115.6575551,
            45.4282349
          ],
          [
            -115.6601305,
            45.4294423
          ],
          [
            -115.662706,
            45.4306498
          ],
          [
            -115.6652814,
            45.4318572
          ],
          [
            -115.6678568,
            45.4330646
          ],
          [
            -115.6704322,
            45.4342721
          ],
          [
            -115.6734869,
            45.4351309
          ],
          [
            -115.6765417,
            45.4359896
          ],
          [
            -115.6795964,
            45.4368484
          ],
          [
            -115.6826512,
            45.4377071
          ],
          [
            -115.6857059,
            45.4385659
          ],
          [
            -115.6887607,
            45.4394246
          ],
          [
            -115.6918223,
            45.4401057
          ],
          [
            -115.6948838,
            45.4407869
          ],
          [
            -115.6979454,
            45.441468
          ],
          [
            -115.701007,
            45.4421491
          ],
          [
            -115.7040685,
            45.4428303
          ],
          [
            -115.7071301,
            45.4435114
          ],
          [
            -115.7103633,
            45.4434064
          ],
          [
            -115.7135966,
            45.4433013
          ],
          [
            -115.7168299,
            45.4431963
          ],
          [
            -115.7200631,
            45.4430913
          ],
          [
            -115.7232963,
            45.4429862
          ],
          [
            -115.7265296,
            45.4428812
          ],
          [
            -115.7298274,
            45.4431324
          ],
          [
            -115.7331252,
            45.4433836
          ],
          [
            -115.736423,
            45.4436349
          ],
          [
            -115.7397207,
            45.4438861
          ],
          [
            -115.7430185,
            45.4441373
          ],
          [
            -115.7463163,
            45.4443885
          ],
          [
            -115.7490686,
            45.4454101
          ],
          [
            -115.7518208,
            45.4464316
          ],
          [
            -115.7545731,
            45.4474532
          ],
          [
            -115.7573253,
            45.4484748
          ],
          [
            -115.7600776,
            45.4494963
          ],
          [
            -115.7628298,
            45.4505179
          ],
          [
            -115.7653715,
            45.4520603
          ],
          [
            -115.7679131,
            45.4536028
          ],
          [
            -115.7704547,
            45.4551452
          ],
          [
            -115.7729964,
            45.4566876
          ],
          [
            -115.7755381,
            45.4582301
          ],
          [
            -115.7780797,
            45.4597725
          ],
          [
            -115.781008,
            45.4609099
          ],
          [
            -115.7839363,
            45.4620472
          ],
          [
            -115.7868647,
            45.4631846
          ],
          [
            -115.789793,
            45.4643219
          ],
          [
            -115.7927213,
            45.4654593
          ],
          [
            -115.7956496,
            45.4665966
          ],
          [
            -115.7989055,
            45.4665689
          ],
          [
            -115.8021615,
            45.4665412
          ],
          [
            -115.8054174,
            45.4665135
          ],
          [
            -115.8086733,
            45.4664858
          ],
          [
            -115.8119293,
            45.4664581
          ],
          [
            -115.8151852,
            45.4664304
          ],
          [
            -115.8185671,
            45.4664086
          ],
          [
            -115.821949,
            45.4663867
          ],
          [
            -115.8253309,
            45.4663649
          ],
          [
            -115.8287127,
            45.4663431
          ],
          [
            -115.8320946,
            45.4663212
          ],
          [
            -115.8354765,
            45.4662994
          ],
          [
            -115.8386416,
            45.4655161
          ],
          [
            -115.8418066,
            45.4647328
          ],
          [
            -115.8449716,
            45.4639495
          ],
          [
            -115.8481367,
            45.4631661
          ],
          [
            -115.8513018,
            45.4623828
          ],
          [
            -115.8544668,
            45.4615995
          ],
          [
            -115.857765,
            45.4611635
          ],
          [
            -115.8610632,
            45.4607274
          ],
          [
            -115.8643614,
            45.4602914
          ],
          [
            -115.8676597,
            45.4598554
          ],
          [
            -115.8709579,
            45.4594193
          ],
          [
            -115.8742561,
            45.4589833
          ],
          [
            -115.8775461,
            45.4591561
          ],
          [
            -115.880836,
            45.4593289
          ],
          [
            -115.884126,
            45.4595017
          ],
          [
            -115.887416,
            45.4596745
          ],
          [
            -115.8907059,
            45.4598473
          ],
          [
            -115.8939959,
            45.4600201
          ],
          [
            -115.8973651,
            45.459756
          ],
          [
            -115.9007343,
            45.4594918
          ],
          [
            -115.9041034,
            45.4592277
          ],
          [
            -115.9074726,
            45.4589635
          ],
          [
            -115.9108418,
            45.4586993
          ],
          [
            -115.914211,
            45.4584352
          ],
          [
            -115.9175172,
            45.4584418
          ],
          [
            -115.9208233,
            45.4584485
          ],
          [
            -115.9241295,
            45.4584551
          ],
          [
            -115.9274357,
            45.4584618
          ],
          [
            -115.9307418,
            45.4584684
          ],
          [
            -115.934048,
            45.4584751
          ]
        ]
      }
    }
  ]
}